[{"OBJECT_NAME":"NETSAT-1","OBJECT_ID":"2020-068W","EPOCH":"2026-03-09T22:42:38.711232","MEAN_MOTION":15.32042482,"ECCENTRICITY":0.00057337,"INCLINATION":97.8751,"RA_OF_ASC_NODE":63.2583,"ARG_OF_PERICENTER":18.5877,"MEAN_ANOMALY":341.5572,"EPHEMERIS_TYPE":0,"CLASSIFICATION_TYPE":"U","NORAD_CAT_ID":46506,"ELEMENT_SET_NO":999,"REV_AT_EPOCH":30009,"BSTAR":0.00059222329,"MEAN_MOTION_DOT":0.00018269,"MEAN_MOTION_DDOT":0},{"OBJECT_NAME":"STARLINK-35731","OBJECT_ID":"2025-244Y","EPOCH":"2026-03-09T16:58:01.082208","MEAN_MOTION":15.30216386,"ECCENTRICITY":0.00012132,"INCLINATION":53.1598,"RA_OF_ASC_NODE":229.7217,"ARG_OF_PERICENTER":65.7768,"MEAN_ANOMALY":294.3359,"EPHEMERIS_TYPE":0,"CLASSIFICATION_TYPE":"U","NORAD_CAT_ID":66228,"ELEMENT_SET_NO":999,"REV_AT_EPOCH":2166,"BSTAR":0.00069964213,"MEAN_MOTION_DOT":0.0002043,"MEAN_MOTION_DDOT":0}]
